{"fetched_at":"2026-07-21T17:53:05.430Z","source":"https://celestrak.org/NORAD/elements/gp.php?GROUP=oneweb&FORMAT=JSON","constellation":"oneweb","records":[{"OBJECT_NAME":"ONEWEB-0701","OBJECT_ID":"2024-188P","EPOCH":"2026-07-21T01:26:50.097120","CLASSIFICATION_TYPE":"U","MEAN_MOTION":13.10369918,"ECCENTRICITY":0.00026316,"INCLINATION":87.8818,"RA_OF_ASC_NODE":29.5153,"ARG_OF_PERICENTER":95.7825,"MEAN_ANOMALY":264.3602,"EPHEMERIS_TYPE":0,"NORAD_CAT_ID":61607,"ELEMENT_SET_NO":999,"REV_AT_EPOCH":8774,"BSTAR":0.0011852422,"MEAN_MOTION_DOT":0.00000426,"MEAN_MOTION_DDOT":0},{"OBJECT_NAME":"ONEWEB-0702","OBJECT_ID":"2024-188Q","EPOCH":"2026-07-21T04:48:42.375744","CLASSIFICATION_TYPE":"U","MEAN_MOTION":13.11416756,"ECCENTRICITY":0.0002881,"INCLINATION":87.8908,"RA_OF_ASC_NODE":14.2191,"ARG_OF_PERICENTER":89.1178,"MEAN_ANOMALY":271.028,"EPHEMERIS_TYPE":0,"NORAD_CAT_ID":61608,"ELEMENT_SET_NO":999,"REV_AT_EPOCH":8894,"BSTAR":-0.0016962994,"MEAN_MOTION_DOT":-0.00000588,"MEAN_MOTION_DDOT":0},{"OBJECT_NAME":"ONEWEB-0704","OBJECT_ID":"2024-188R","EPOCH":"2026-07-21T06:39:35.459136","CLASSIFICATION_TYPE":"U","MEAN_MOTION":13.10372564,"ECCENTRICITY":0.00028594,"INCLINATION":87.8825,"RA_OF_ASC_NODE":29.4621,"ARG_OF_PERICENTER":84.8839,"MEAN_ANOMALY":275.2615,"EPHEMERIS_TYPE":0,"NORAD_CAT_ID":61609,"ELEMENT_SET_NO":999,"REV_AT_EPOCH":8775,"BSTAR":0.0018455896,"MEAN_MOTION_DOT":0.00000657,"MEAN_MOTION_DDOT":0},{"OBJECT_NAME":"ONEWEB-0705","OBJECT_ID":"2024-188S","EPOCH":"2026-07-21T01:17:03.918048","CLASSIFICATION_TYPE":"U","MEAN_MOTION":13.10371338,"ECCENTRICITY":0.00025455,"INCLINATION":87.8826,"RA_OF_ASC_NODE":29.5128,"ARG_OF_PERICENTER":69.688,"MEAN_ANOMALY":290.4521,"EPHEMERIS_TYPE":0,"NORAD_CAT_ID":61610,"ELEMENT_SET_NO":999,"REV_AT_EPOCH":7989,"BSTAR":0.0017075432,"MEAN_MOTION_DOT":0.00000609,"MEAN_MOTION_DDOT":0},{"OBJECT_NAME":"ONEWEB-0706","OBJECT_ID":"2024-188T","EPOCH":"2026-07-21T06:24:55.546848","CLASSIFICATION_TYPE":"U","MEAN_MOTION":13.10373187,"ECCENTRICITY":0.00024667,"INCLINATION":87.882,"RA_OF_ASC_NODE":29.4735,"ARG_OF_PERICENTER":82.7492,"MEAN_ANOMALY":277.3915,"EPHEMERIS_TYPE":0,"NORAD_CAT_ID":61611,"ELEMENT_SET_NO":999,"REV_AT_EPOCH":8784,"BSTAR":0.0024413527,"MEAN_MOTION_DOT":0.00000865,"MEAN_MOTION_DDOT":0},{"OBJECT_NAME":"ONEWEB-0707","OBJECT_ID":"2024-188U","EPOCH":"2026-07-21T01:04:49.997568","CLASSIFICATION_TYPE":"U","MEAN_MOTION":13.10372579,"ECCENTRICITY":0.00023948,"INCLINATION":87.8826,"RA_OF_ASC_NODE":29.5135,"ARG_OF_PERICENTER":84.0338,"MEAN_ANOMALY":276.1062,"EPHEMERIS_TYPE":0,"NORAD_CAT_ID":61612,"ELEMENT_SET_NO":999,"REV_AT_EPOCH":8775,"BSTAR":0.0016976275,"MEAN_MOTION_DOT":0.00000605,"MEAN_MOTION_DDOT":0},{"OBJECT_NAME":"ONEWEB-0708","OBJECT_ID":"2024-188V","EPOCH":"2026-07-21T01:31:42.255264","CLASSIFICATION_TYPE":"U","MEAN_MOTION":13.10368757,"ECCENTRICITY":0.00018593,"INCLINATION":87.8814,"RA_OF_ASC_NODE":29.5253,"ARG_OF_PERICENTER":71.3402,"MEAN_ANOMALY":288.7927,"EPHEMERIS_TYPE":0,"NORAD_CAT_ID":61613,"ELEMENT_SET_NO":999,"REV_AT_EPOCH":8773,"BSTAR":0.00077001101,"MEAN_MOTION_DOT":0.00000281,"MEAN_MOTION_DDOT":0}]}
